H1 CPF 01  gfz 2021 03 26 01  5851 tandemx   
H2 1003001  6202 36605    2021 03 26 00 59 42 2021 03 31 00 00 42   120 1 1  0 0 0
H9
10 0 59299  20142.000000  0    6623511.499    501616.251  -1837831.547
10 0 59299  20262.000000  0    6338749.662    301729.147  -2690919.119
10 0 59299  20382.000000  0    5940004.760    102563.907  -3496769.055
10 0 59299  20502.000000  0    5434394.311    -90473.406  -4241297.457
10 0 59299  20622.000000  0    4830977.575   -272232.403  -4911528.134
10 0 59299  20742.000000  0    4140580.198   -437939.836  -5495812.484
10 0 59299  20862.000000  0    3375590.443   -583310.293  -5984023.600
10 0 59299  20982.000000  0    2549729.203   -704644.455  -6367722.323
10 0 59299  21102.000000  0    1677799.055   -798911.554  -6640291.087
10 0 59299  21222.000000  0     775419.676   -863816.139  -6797036.857
10 0 59299  21342.000000  0    -141248.864   -897847.799  -6835264.102
10 0 59299  21462.000000  0   -1055789.706   -900312.347  -6754315.131
10 0 59299  21582.000000  0   -1951815.962   -871345.322  -6555580.719
10 0 59299  21702.000000  0   -2813258.092   -811906.665  -6242478.112
10 0 59299  21822.000000  0   -3624645.015   -723757.400  -5820397.891
10 0 59299  21942.000000  0   -4371379.160   -609418.446  -5296622.596
10 0 59299  22062.000000  0   -5040000.995   -472111.627  -4680212.032
10 0 59299  22182.000000  0   -5618436.120   -315684.491  -3981858.241
10 0 59299  22302.000000  0   -6096222.983   -144519.804  -3213710.915
10 0 59299  22422.000000  0   -6464713.778     36569.414  -2389172.884
10 0 59299  22542.000000  0   -6717244.394    222456.200  -1522670.707
10 0 59299  22662.000000  0   -6849268.839    407825.948   -629401.933
10 0 59299  22782.000000  0   -6858451.966    587308.101    274937.360
10 0 59299  22902.000000  0   -6744716.857    755611.033   1174434.757
10 0 59299  23022.000000  0   -6510249.352    907656.190   2053249.198
10 0 59299  23142.000000  0   -6159456.671   1038708.052   2895899.556
10 0 59299  23262.000000  0   -5698880.197   1144496.534   3687546.242
10 0 59299  23382.000000  0   -5137065.186   1221328.471   4414258.614
10 0 59299  23502.000000  0   -4484392.465   1266185.697   5063262.686
10 0 59299  23622.000000  0   -3752876.769   1276807.001   5623164.969
10 0 59299  23742.000000  0   -2955937.094   1251752.816   6084149.858
10 0 59299  23862.000000  0   -2108142.925   1190450.994   6438148.221
10 0 59299  23982.000000  0   -1224940.721   1093223.429   6678972.998
10 0 59299  24102.000000  0    -322368.779    961292.038   6802419.901
10 0 59299  24222.000000  0     583234.139    796764.812   6806335.514
10 0 59299  24342.000000  0    1475523.495    602601.975   6690652.272
10 0 59299  24462.000000  0    2338442.705    382563.168   6457389.639
10 0 59299  24582.000000  0    3156511.444    141135.948   6110621.988
10 0 59299  24702.000000  0    3915105.396   -116553.589   5656412.321
10 0 59299  24822.000000  0    4600721.071   -384846.474   5102711.571
10 0 59299  24942.000000  0    5201221.930   -657670.637   4459225.503
10 0 59299  25062.000000  0    5706061.144   -928673.118   3737249.576
10 0 59299  25182.000000  0    6106476.874  -1191361.978   2949474.034
10 0 59299  25302.000000  0    6395654.182  -1439254.497   2109760.400
10 0 59299  25422.000000  0    6568849.659  -1666027.546   1232894.450
10 0 59299  25542.000000  0    6623475.449  -1865667.680    334320.721
10 0 59299  25662.000000  0    6559140.790  -2032617.588   -570137.854
10 0 59299  25782.000000  0    6377647.630  -2161912.532  -1464567.967
10 0 59299  25902.000000  0    6082942.699  -2249305.497  -2333254.588
10 0 59299  26022.000000  0    5681025.858  -2291376.702  -3160964.071
10 0 59299  26142.000000  0    5179818.916  -2285625.047  -3933214.588
10 0 59299  26262.000000  0    4588999.825  -2230539.962  -4636529.534
10 0 59299  26382.000000  0    3919805.411  -2125652.275  -5258670.013
10 0 59299  26502.000000  0    3184807.150  -1971562.983  -5788840.672
10 0 59299  26622.000000  0    2397668.369  -1769949.548  -6217866.059
10 0 59299  26742.000000  0    1572888.050  -1523550.291  -6538339.281
10 0 59299  26862.000000  0     725532.518  -1236126.905  -6744739.394
10 0 59299  26982.000000  0    -129036.885   -912407.015  -6833516.051
10 0 59299  27102.000000  0    -975436.774   -558007.169  -6803143.415
10 0 59299  27222.000000  0   -1798531.955   -179337.608  -6654143.729
10 0 59299  27342.000000  0   -2583700.066    216511.031  -6389078.516
10 0 59299  27462.000000  0   -3317085.080    621896.193  -6012508.839
10 0 59299  27582.000000  0   -3985838.417   1028766.376  -5530926.255
10 0 59299  27702.000000  0   -4578345.236   1428815.967  -4952651.862
10 0 59299  27822.000000  0   -5084430.783   1813650.890  -4287705.092
10 0 59299  27942.000000  0   -5495543.163   2174962.097  -3547640.197
10 0 59299  28062.000000  0   -5804907.221   2504701.416  -2745354.083
10 0 59299  28182.000000  0   -6007647.716   2795257.502  -1894867.419
10 0 59299  28302.000000  0   -6100877.206   3039627.682  -1011081.308
10 0 59299  28422.000000  0   -6083745.535   3231581.509   -109513.861
10 0 59299  28542.000000  0   -5957449.067   3365810.845    793978.606
10 0 59299  28662.000000  0   -5725197.229   3438062.254   1683489.397
10 0 59299  28782.000000  0   -5392137.980   3445248.951   2543350.467
10 0 59299  28902.000000  0   -4965244.508   3385538.688   3358416.625
10 0 59299  29022.000000  0   -4453166.441   3258415.507   4114339.631
10 0 59299  29142.000000  0   -3866048.287   3064713.416   4797825.258
10 0 59299  29262.000000  0   -3215322.028   2806622.199   5396867.659
10 0 59299  29382.000000  0   -2513477.663   2487666.348   5900959.625
10 0 59299  29502.000000  0   -1773816.565   2112655.988   6301273.010
10 0 59299  29622.000000  0   -1010193.884   1687611.717   6590807.474
10 0 59299  29742.000000  0    -236756.594   1219665.510   6764505.200
10 0 59299  29862.000000  0     532318.173    716939.277   6819333.942
10 0 59299  29982.000000  0    1283082.420    188403.555   6754336.414
10 0 59299  30102.000000  0    2002069.010   -356281.815   6570646.012
10 0 59299  30222.000000  0    2676532.525   -906943.718   6271469.131
10 0 59299  30342.000000  0    3294676.042  -1453084.842   5862033.410
10 0 59299  30462.000000  0    3845860.894  -1984083.490   5349502.043
10 0 59299  30582.000000  0    4320793.880  -2489400.326   4742853.490
10 0 59299  30702.000000  0    4711689.459  -2958788.557   4052730.466
10 0 59299  30822.000000  0    5012404.738  -3382504.462   3291257.700
10 0 59299  30942.000000  0    5218543.205  -3751511.926   2471829.444
10 0 59299  31062.000000  0    5327522.792  -4057676.115   1608871.302
10 0 59299  31182.000000  0    5338607.489  -4293942.766    717582.004
10 0 59299  31302.000000  0    5252902.303  -4454497.331   -186341.103
10 0 59299  31422.000000  0    5073310.841  -4534900.749  -1086986.971
10 0 59299  31542.000000  0    4804456.073  -4532196.986  -1968520.102
10 0 59299  31662.000000  0    4452566.651  -4444990.231  -2815466.896
10 0 59299  31782.000000  0    4025332.233  -4273490.124  -3612992.550
10 0 59299  31902.000000  0    3531732.029  -4019524.158  -4347163.254
10 0 59299  32022.000000  0    2981841.147  -3686517.499  -5005187.899
10 0 59299  32142.000000  0    2386619.638  -3279441.796  -5575635.121
10 0 59299  32262.000000  0    1757690.936  -2804735.083  -6048621.779
10 0 59299  32382.000000  0    1107114.569  -2270196.057  -6415973.943
10 0 59299  32502.000000  0     447155.129  -1684852.256  -6671358.568
10 0 59299  32622.000000  0    -209946.550  -1058805.303  -6810381.719
10 0 59299  32742.000000  0    -852195.441   -403057.656  -6830654.843
10 0 59299  32862.000000  0   -1468055.604    270676.808  -6731830.901
10 0 59299  32982.000000  0   -2046652.719    950176.686  -6515609.051
10 0 59299  33102.000000  0   -2577961.479   1622929.005  -6185708.585
10 0 59299  33222.000000  0   -3052976.348   2276353.858  -5747812.154
10 0 59299  33342.000000  0   -3463864.376   2898035.828  -5209479.008
10 0 59299  33462.000000  0   -3804097.879   3475958.956  -4580026.532
10 0 59299  33582.000000  0   -4068563.485   3998740.140  -3870379.244
10 0 59299  33702.000000  0   -4253643.387   4455856.137  -3092887.983
10 0 59299  33822.000000  0   -4357268.591   4837860.123  -2261122.581
10 0 59299  33942.000000  0   -4378943.254   5136581.892  -1389638.812
10 0 59299  34062.000000  0   -4319738.468   5345308.048   -493723.949
10 0 59299  34182.000000  0   -4182253.350   5458936.047    410876.875
10 0 59299  34302.000000  0   -3970544.597   5474096.204   1308243.811
10 0 59299  34422.000000  0   -3690026.857   5389241.080   2182572.345
10 0 59299  34542.000000  0   -3347344.483   5204695.879   3018462.111
10 0 59299  34662.000000  0   -2950217.851   4922670.404   3801195.527
10 0 59299  34782.000000  0   -2507271.062   4547233.947   4517001.521
10 0 59299  34902.000000  0   -2027844.088   4084252.880   5153300.585
10 0 59299  35022.000000  0   -1521794.497   3541292.452   5698925.831
10 0 59299  35142.000000  0    -999292.684   2927485.587   6144315.784
10 0 59299  35262.000000  0    -470616.440   2253372.055   6481676.096
10 0 59299  35382.000000  0      54050.585   1530712.997   6705109.165
10 0 59299  35502.000000  0     564814.568    772282.793   6810712.371
10 0 59299  35622.000000  0    1052257.434     -8357.882   6796641.009
10 0 59299  35742.000000  0    1507609.412   -797103.439   6663139.001
10 0 59299  35862.000000  0    1922906.455  -1579557.984   6412535.527
10 0 59299  35982.000000  0    2291129.857  -2341297.283   6049207.351
10 0 59299  36102.000000  0    2606326.496  -3068135.750   5579507.742
10 0 59299  36222.000000  0    2863707.140  -3746393.033   5011660.672
10 0 59299  36342.000000  0    3059720.675  -4363155.144   4355622.535
10 0 59299  36462.000000  0    3192104.253  -4906526.624   3622912.477
10 0 59299  36582.000000  0    3259906.688  -5365866.761   2826411.887
99
